APRIZESAT 2             
1 28366U 04025A   26156.24737768  .00000146  00000+0  58911-4 0  9998
2 28366  98.1006 322.9044 0104310 286.3317  72.6421 14.38031151149928
SAUDICOMSAT 1           
1 28369U 04025D   26156.26061620  .00000440  00000+0  11177-3 0  9999
2 28369  98.5772 166.0703 0033253  61.2125 299.2405 14.55463764162391
SAUDICOMSAT 2           
1 28370U 04025E   26155.97996046  .00000333  00000+0  97282-4 0  9990
2 28370  98.6642 167.8805 0054241 297.2711  62.2964 14.49974015158330
APRIZESAT 1             
1 28372U 04025G   26155.61311203  .00000255  00000+0  74721-4 0  9995
2 28372  98.6304 165.9962 0044334 191.8699 168.1454 14.51770809160089
NANOSAT-1               
1 28493U 04049B   26156.27121398  .00001145  00000+0  15822-3 0  9997
2 28493  98.2262 292.6421 0003497 350.3345   9.7798 14.80135095153688
SAUDICOMSAT 7           
1 31119U 07012C   26156.16922619  .00000545  00000+0  10672-3 0  9993
2 31119  98.3772 130.0554 0054594 233.3856 126.2319 14.66098064 20671
SAUDICOMSAT 6           
1 31121U 07012E   26155.98107581  .00000839  00000+0  16956-3 0  9995
2 31121  98.4090 123.2709 0071946   5.9200 354.2834 14.62542454 18406
SAUDICOMSAT 5           
1 31124U 07012H   26156.15940390  .00000672  00000+0  12404-3 0  9990
2 31124  98.3484 130.7953 0047749 161.9328 198.3587 14.68142232 21836
SAUDICOMSAT 3           
1 31125U 07012J   26154.43994603  .00000985  00000+0  16842-3 0  9993
2 31125  98.3138 129.5910 0040504  95.2690 265.3139 14.70681681 22800
SAUDICOMSAT 4           
1 31127U 07012L   26154.76337527  .00000697  00000+0  13788-3 0  9993
2 31127  98.3976 127.0607 0062263 301.0451  58.4648 14.64497432 19328
S-NET D                 
1 43186U 18014G   26155.72810238  .00005903  00000+0  30569-3 0  9998
2 43186  97.5370  60.5972 0009887  67.4587 292.7691 15.16550561456874
S-NET B                 
1 43187U 18014H   26156.26717059  .00005226  00000+0  27120-3 0  9993
2 43187  97.5375  61.1188 0010394  61.7423 298.4857 15.16525017456951
S-NET A                 
1 43188U 18014J   26155.72704580  .00005834  00000+0  30204-3 0  9991
2 43188  97.5386  60.7888 0010387  63.5981 296.6317 15.16558138456879
S-NET C                 
1 43189U 18014K   26156.27098594  .00005367  00000+0  27841-3 0  9998
2 43189  97.5401  61.4022 0011516  55.3016 304.9300 15.16516677455505
SALSAT                  
1 46495U 20068K   26155.97862976  .00008911  00000+0  31300-3 0  9995
2 46495  97.8851 158.3021 0009245 356.4519   3.6652 15.29615280313492
OOV-CUBE (TUBSAT-30)    
1 60240U 24128F   26156.01171044  .00003200  00000+0  24869-3 0  9993
2 60240  61.9954 268.0264 0046139 131.0618 229.4475 15.02717688104282
