OBJECT_NAME,OBJECT_ID,EPOCH,MEAN_MOTION,ECCENTRICITY,INCLINATION,RA_OF_ASC_NODE,ARG_OF_PERICENTER,MEAN_ANOMALY,EPHEMERIS_TYPE,CLASSIFICATION_TYPE,NORAD_CAT_ID,ELEMENT_SET_NO,REV_AT_EPOCH,BSTAR,MEAN_MOTION_DOT,MEAN_MOTION_DDOT
APRIZESAT 2,2004-025A,2026-06-05T05:56:13.431552,14.38031151,.01043109,98.1006,322.9044,286.3317,72.6421,0,U,28366,999,14992,.58910976E-4,.146E-5,0
SAUDICOMSAT 1,2004-025D,2026-06-05T06:15:17.239680,14.55463764,.00332539,98.5772,166.0703,61.2125,299.2405,0,U,28369,999,16239,.11177345E-3,.44E-5,0
SAUDICOMSAT 2,2004-025E,2026-06-04T23:31:08.583744,14.49974015,.00542419,98.6642,167.8805,297.2711,62.2964,0,U,28370,999,15833,.97282339E-4,.333E-5,0
APRIZESAT 1,2004-025G,2026-06-04T14:42:52.879392,14.51770809,.00443347,98.6304,165.9962,191.8699,168.1454,0,U,28372,999,16008,.74720861E-4,.255E-5,0
NANOSAT-1,2004-049B,2026-06-05T06:30:32.887872,14.80135095,.00034975,98.2262,292.6421,350.3345,9.7798,0,U,28493,999,15368,.15821738E-3,.1145E-4,0
SAUDICOMSAT 7,2007-012C,2026-06-05T04:03:41.142816,14.66098064,.00545941,98.3772,130.0554,233.3856,126.2319,0,U,31119,999,2067,.10671878E-3,.545E-5,0
SAUDICOMSAT 6,2007-012E,2026-06-04T23:32:44.949984,14.62542454,.00719467,98.4090,123.2709,5.9200,354.2834,0,U,31121,999,1840,.16955924E-3,.839E-5,0
SAUDICOMSAT 5,2007-012H,2026-06-05T03:49:32.496960,14.68142232,.00477494,98.3484,130.7953,161.9328,198.3587,0,U,31124,999,2183,.1240439E-3,.672E-5,0
SAUDICOMSAT 3,2007-012J,2026-06-03T10:33:31.336992,14.70681681,.00405047,98.3138,129.5910,95.2690,265.3139,0,U,31125,999,2280,.1684233E-3,.985E-5,0
SAUDICOMSAT 4,2007-012L,2026-06-03T18:19:15.623328,14.64497432,.00622637,98.3976,127.0607,301.0451,58.4648,0,U,31127,999,1932,.13787891E-3,.697E-5,0
S-NET D,2018-014G,2026-06-04T17:28:28.045632,15.16550561,.00098871,97.5370,60.5972,67.4587,292.7691,0,U,43186,999,45687,.30568704E-3,.5903E-4,0
S-NET B,2018-014H,2026-06-05T06:24:43.538976,15.16525017,.00103949,97.5375,61.1188,61.7423,298.4857,0,U,43187,999,45695,.27119956E-3,.5226E-4,0
S-NET A,2018-014J,2026-06-04T17:26:56.757120,15.16558138,.00103873,97.5386,60.7888,63.5981,296.6317,0,U,43188,999,45687,.30203737E-3,.5834E-4,0
S-NET C,2018-014K,2026-06-05T06:30:13.185216,15.16516677,.00115168,97.5401,61.4022,55.3016,304.9300,0,U,43189,999,45550,.27841293E-3,.5367E-4,0
SALSAT,2020-068K,2026-06-04T23:29:13.611264,15.29615280,.0009245,97.8851,158.3021,356.4519,3.6652,0,U,46495,999,31349,.3129959E-3,.8911E-4,0
OOV-CUBE (TUBSAT-30),2024-128F,2026-06-05T00:16:51.782016,15.02717688,.00461395,61.9954,268.0264,131.0618,229.4475,0,U,60240,999,10428,.24868725E-3,.32E-4,0
